{
    "links": {
        "self": "http://www.neowsapp.com/rest/v1/neo/3699512?api_key=iIulBulltgU6a56xZRHN4H3l9WmuAYTsLGpBGhQ2"
    },
    "id": "3699512",
    "neo_reference_id": "3699512",
    "name": "(2014 WM365)",
    "designation": "2014 WM365",
    "nasa_jpl_url": "http://ssd.jpl.nasa.gov/sbdb.cgi?sstr=3699512",
    "absolute_magnitude_h": 25.6,
    "estimated_diameter": {
        "kilometers": {
            "estimated_diameter_min": 0.0201629919,
            "estimated_diameter_max": 0.0450858206
        },
        "meters": {
            "estimated_diameter_min": 20.1629919443,
            "estimated_diameter_max": 45.0858206172
        },
        "miles": {
            "estimated_diameter_min": 0.0125286985,
            "estimated_diameter_max": 0.0280150214
        },
        "feet": {
            "estimated_diameter_min": 66.1515504905,
            "estimated_diameter_max": 147.9193637137
        }
    },
    "is_potentially_hazardous_asteroid": false,
    "close_approach_data": [
        {
            "close_approach_date": "1905-11-26",
            "close_approach_date_full": "1905-Nov-26 01:13",
            "epoch_date_close_approach": -2022792420000,
            "relative_velocity": {
                "kilometers_per_second": "9.3811215874",
                "kilometers_per_hour": "33772.0377145036",
                "miles_per_hour": "20984.6308787703"
            },
            "miss_distance": {
                "astronomical": "0.1603504688",
                "lunar": "62.3763323632",
                "kilometers": "23988088.585981456",
                "miles": "14905507.0697818528"
            },
            "orbiting_body": "Earth"
        },
        {
            "close_approach_date": "2014-12-16",
            "close_approach_date_full": "2014-Dec-16 12:26",
            "epoch_date_close_approach": 1418732760000,
            "relative_velocity": {
                "kilometers_per_second": "5.9123045064",
                "kilometers_per_hour": "21284.2962229109",
                "miles_per_hour": "13225.2339502859"
            },
            "miss_distance": {
                "astronomical": "0.0545250395",
                "lunar": "21.2102403655",
                "kilometers": "8156829.770865865",
                "miles": "5068418.993904337"
            },
            "orbiting_body": "Earth"
        },
        {
            "close_approach_date": "2128-11-16",
            "close_approach_date_full": "2128-Nov-16 09:24",
            "epoch_date_close_approach": 5013653040000,
            "relative_velocity": {
                "kilometers_per_second": "15.0288913372",
                "kilometers_per_hour": "54104.0088137472",
                "miles_per_hour": "33618.1270320753"
            },
            "miss_distance": {
                "astronomical": "0.3549045796",
                "lunar": "138.0578814644",
                "kilometers": "53092969.161405452",
                "miles": "32990441.2498091576"
            },
            "orbiting_body": "Earth"
        }
    ],
    "orbital_data": {
        "orbit_id": "8",
        "orbit_determination_date": "2017-04-06 08:37:05",
        "first_observation_date": "2014-11-27",
        "last_observation_date": "2014-12-24",
        "data_arc_in_days": 27,
        "observations_used": 21,
        "orbit_uncertainty": "7",
        "minimum_orbit_intersection": ".047589",
        "jupiter_tisserand_invariant": "3.983",
        "epoch_osculation": "2459000.5",
        "eccentricity": ".4208665284053628",
        "semi_major_axis": "1.777610083112116",
        "inclination": "5.393690142865685",
        "ascending_node_longitude": "84.9286069840135",
        "orbital_period": "865.6716289881451",
        "perihelion_distance": "1.029473498574351",
        "perihelion_argument": "9.238921881067331",
        "aphelion_distance": "2.52574666764988",
        "perihelion_time": "2458747.236946050447",
        "mean_anomaly": "105.3224991656596",
        "mean_motion": ".4158620751159329",
        "equinox": "J2000",
        "orbit_class": {
            "orbit_class_type": "AMO",
            "orbit_class_description": "Near-Earth asteroid orbits similar to that of 1221 Amor",
            "orbit_class_range": "1.017 AU < q (perihelion) < 1.3 AU"
        }
    },
    "is_sentry_object": false
}